[{"OBJECT_NAME":"TIANMU-1 10","OBJECT_ID":"2023-101D","EPOCH":"2026-03-09T23:06:46.939392","MEAN_MOTION":15.2921896,"ECCENTRICITY":0.00069292,"INCLINATION":97.2749,"RA_OF_ASC_NODE":122.1027,"ARG_OF_PERICENTER":133.6162,"MEAN_ANOMALY":226.5654,"EPHEMERIS_TYPE":0,"CLASSIFICATION_TYPE":"U","NORAD_CAT_ID":57402,"ELEMENT_SET_NO":999,"REV_AT_EPOCH":14647,"BSTAR":0.00032238884,"MEAN_MOTION_DOT":9.075e-5,"MEAN_MOTION_DDOT":0},{"OBJECT_NAME":"STARLINK-31747","OBJECT_ID":"2024-076A","EPOCH":"2026-03-09T03:46:34.440384","MEAN_MOTION":15.27569115,"ECCENTRICITY":0.00023006,"INCLINATION":43.0044,"RA_OF_ASC_NODE":1.4223,"ARG_OF_PERICENTER":246.2125,"MEAN_ANOMALY":113.8486,"EPHEMERIS_TYPE":0,"CLASSIFICATION_TYPE":"U","NORAD_CAT_ID":59564,"ELEMENT_SET_NO":999,"REV_AT_EPOCH":10653,"BSTAR":-6.7479256e-5,"MEAN_MOTION_DOT":-2.118e-5,"MEAN_MOTION_DDOT":0}]
